<?xml version="1.0" encoding="UTF-8"?>
<ndm xmlns:xsi="http://www.w3.org/2001/XMLSchema-instance" xsi:noNamespaceSchemaLocation="https://sanaregistry.org/r/ndmxml_unqualified/ndmxml-2.0.0-master-2.0.xsd">
<omm id="CCSDS_OMM_VERS" version="2.0">
<header><CREATION_DATE/><ORIGINATOR/></header><body><segment><metadata><OBJECT_NAME>QIANFAN-17</OBJECT_NAME><OBJECT_ID>2024-140S</OBJECT_ID><CENTER_NAME>EARTH</CENTER_NAME><REF_FRAME>TEME</REF_FRAME><TIME_SYSTEM>UTC</TIME_SYSTEM><MEAN_ELEMENT_THEORY>SGP4</MEAN_ELEMENT_THEORY></metadata><data><meanElements><EPOCH>2025-12-20T21:08:36.543264</EPOCH><MEAN_MOTION>13.50978213</MEAN_MOTION><ECCENTRICITY>.00145013</ECCENTRICITY><INCLINATION>88.9780</INCLINATION><RA_OF_ASC_NODE>298.5929</RA_OF_ASC_NODE><ARG_OF_PERICENTER>175.1243</ARG_OF_PERICENTER><MEAN_ANOMALY>185.0052</MEAN_ANOMALY></meanElements><tleParameters><EPHEMERIS_TYPE>0</EPHEMERIS_TYPE><CLASSIFICATION_TYPE>U</CLASSIFICATION_TYPE><NORAD_CAT_ID>60395</NORAD_CAT_ID><ELEMENT_SET_NO>999</ELEMENT_SET_NO><REV_AT_EPOCH>6923</REV_AT_EPOCH><BSTAR>.98624097E-4</BSTAR><MEAN_MOTION_DOT>.76E-6</MEAN_MOTION_DOT><MEAN_MOTION_DDOT>0</MEAN_MOTION_DDOT></tleParameters></data></segment></body></omm>
<omm id="CCSDS_OMM_VERS" version="2.0">
<header><CREATION_DATE/><ORIGINATOR/></header><body><segment><metadata><OBJECT_NAME>QIANFAN-18</OBJECT_NAME><OBJECT_ID>2024-140T</OBJECT_ID><CENTER_NAME>EARTH</CENTER_NAME><REF_FRAME>TEME</REF_FRAME><TIME_SYSTEM>UTC</TIME_SYSTEM><MEAN_ELEMENT_THEORY>SGP4</MEAN_ELEMENT_THEORY></metadata><data><meanElements><EPOCH>2025-12-20T22:25:37.514208</EPOCH><MEAN_MOTION>13.50978207</MEAN_MOTION><ECCENTRICITY>.00144217</ECCENTRICITY><INCLINATION>88.9773</INCLINATION><RA_OF_ASC_NODE>298.1203</RA_OF_ASC_NODE><ARG_OF_PERICENTER>157.1938</ARG_OF_PERICENTER><MEAN_ANOMALY>202.9856</MEAN_ANOMALY></meanElements><tleParameters><EPHEMERIS_TYPE>0</EPHEMERIS_TYPE><CLASSIFICATION_TYPE>U</CLASSIFICATION_TYPE><NORAD_CAT_ID>60396</NORAD_CAT_ID><ELEMENT_SET_NO>999</ELEMENT_SET_NO><REV_AT_EPOCH>6863</REV_AT_EPOCH><BSTAR>.76743352E-4</BSTAR><MEAN_MOTION_DOT>.62E-6</MEAN_MOTION_DOT><MEAN_MOTION_DDOT>0</MEAN_MOTION_DDOT></tleParameters></data></segment></body></omm>
<omm id="CCSDS_OMM_VERS" version="2.0">
<header><CREATION_DATE/><ORIGINATOR/></header><body><segment><metadata><OBJECT_NAME>QIANFAN-19</OBJECT_NAME><OBJECT_ID>2024-185A</OBJECT_ID><CENTER_NAME>EARTH</CENTER_NAME><REF_FRAME>TEME</REF_FRAME><TIME_SYSTEM>UTC</TIME_SYSTEM><MEAN_ELEMENT_THEORY>SGP4</MEAN_ELEMENT_THEORY></metadata><data><meanElements><EPOCH>2025-12-20T22:24:08.933472</EPOCH><MEAN_MOTION>14.14303441</MEAN_MOTION><ECCENTRICITY>.0004783</ECCENTRICITY><INCLINATION>88.9818</INCLINATION><RA_OF_ASC_NODE>77.0046</RA_OF_ASC_NODE><ARG_OF_PERICENTER>278.2340</ARG_OF_PERICENTER><MEAN_ANOMALY>81.8304</MEAN_ANOMALY></meanElements><tleParameters><EPHEMERIS_TYPE>0</EPHEMERIS_TYPE><CLASSIFICATION_TYPE>U</CLASSIFICATION_TYPE><NORAD_CAT_ID>61552</NORAD_CAT_ID><ELEMENT_SET_NO>999</ELEMENT_SET_NO><REV_AT_EPOCH>7082</REV_AT_EPOCH><BSTAR>.20102017E-3</BSTAR><MEAN_MOTION_DOT>.398E-5</MEAN_MOTION_DOT><MEAN_MOTION_DDOT>0</MEAN_MOTION_DDOT></tleParameters></data></segment></body></omm>
<omm id="CCSDS_OMM_VERS" version="2.0">
<header><CREATION_DATE/><ORIGINATOR/></header><body><segment><metadata><OBJECT_NAME>QIANFAN-20</OBJECT_NAME><OBJECT_ID>2024-185B</OBJECT_ID><CENTER_NAME>EARTH</CENTER_NAME><REF_FRAME>TEME</REF_FRAME><TIME_SYSTEM>UTC</TIME_SYSTEM><MEAN_ELEMENT_THEORY>SGP4</MEAN_ELEMENT_THEORY></metadata><data><meanElements><EPOCH>2025-12-20T22:14:21.861024</EPOCH><MEAN_MOTION>14.08851799</MEAN_MOTION><ECCENTRICITY>.00043653</ECCENTRICITY><INCLINATION>88.9817</INCLINATION><RA_OF_ASC_NODE>77.3375</RA_OF_ASC_NODE><ARG_OF_PERICENTER>335.6613</ARG_OF_PERICENTER><MEAN_ANOMALY>24.4364</MEAN_ANOMALY></meanElements><tleParameters><EPHEMERIS_TYPE>0</EPHEMERIS_TYPE><CLASSIFICATION_TYPE>U</CLASSIFICATION_TYPE><NORAD_CAT_ID>61553</NORAD_CAT_ID><ELEMENT_SET_NO>999</ELEMENT_SET_NO><REV_AT_EPOCH>7064</REV_AT_EPOCH><BSTAR>.1775098E-3</BSTAR><MEAN_MOTION_DOT>.32E-5</MEAN_MOTION_DOT><MEAN_MOTION_DDOT>0</MEAN_MOTION_DDOT></tleParameters></data></segment></body></omm>
<omm id="CCSDS_OMM_VERS" version="2.0">
<header><CREATION_DATE/><ORIGINATOR/></header><body><segment><metadata><OBJECT_NAME>QIANFAN-21</OBJECT_NAME><OBJECT_ID>2024-185C</OBJECT_ID><CENTER_NAME>EARTH</CENTER_NAME><REF_FRAME>TEME</REF_FRAME><TIME_SYSTEM>UTC</TIME_SYSTEM><MEAN_ELEMENT_THEORY>SGP4</MEAN_ELEMENT_THEORY></metadata><data><meanElements><EPOCH>2025-12-20T21:50:05.180352</EPOCH><MEAN_MOTION>14.22618012</MEAN_MOTION><ECCENTRICITY>.00095845</ECCENTRICITY><INCLINATION>88.9733</INCLINATION><RA_OF_ASC_NODE>76.0247</RA_OF_ASC_NODE><ARG_OF_PERICENTER>347.9877</ARG_OF_PERICENTER><MEAN_ANOMALY>12.1084</MEAN_ANOMALY></meanElements><tleParameters><EPHEMERIS_TYPE>0</EPHEMERIS_TYPE><CLASSIFICATION_TYPE>U</CLASSIFICATION_TYPE><NORAD_CAT_ID>61554</NORAD_CAT_ID><ELEMENT_SET_NO>999</ELEMENT_SET_NO><REV_AT_EPOCH>7113</REV_AT_EPOCH><BSTAR>.21777137E-3</BSTAR><MEAN_MOTION_DOT>.501E-5</MEAN_MOTION_DOT><MEAN_MOTION_DDOT>0</MEAN_MOTION_DDOT></tleParameters></data></segment></body></omm>
<omm id="CCSDS_OMM_VERS" version="2.0">
<header><CREATION_DATE/><ORIGINATOR/></header><body><segment><metadata><OBJECT_NAME>QIANFAN-22</OBJECT_NAME><OBJECT_ID>2024-185D</OBJECT_ID><CENTER_NAME>EARTH</CENTER_NAME><REF_FRAME>TEME</REF_FRAME><TIME_SYSTEM>UTC</TIME_SYSTEM><MEAN_ELEMENT_THEORY>SGP4</MEAN_ELEMENT_THEORY></metadata><data><meanElements><EPOCH>2025-12-20T20:58:13.606176</EPOCH><MEAN_MOTION>13.86305872</MEAN_MOTION><ECCENTRICITY>.00054384</ECCENTRICITY><INCLINATION>88.9801</INCLINATION><RA_OF_ASC_NODE>78.3571</RA_OF_ASC_NODE><ARG_OF_PERICENTER>348.6458</ARG_OF_PERICENTER><MEAN_ANOMALY>11.4589</MEAN_ANOMALY></meanElements><tleParameters><EPHEMERIS_TYPE>0</EPHEMERIS_TYPE><CLASSIFICATION_TYPE>U</CLASSIFICATION_TYPE><NORAD_CAT_ID>61555</NORAD_CAT_ID><ELEMENT_SET_NO>999</ELEMENT_SET_NO><REV_AT_EPOCH>7006</REV_AT_EPOCH><BSTAR>.13682959E-3</BSTAR><MEAN_MOTION_DOT>.171E-5</MEAN_MOTION_DOT><MEAN_MOTION_DDOT>0</MEAN_MOTION_DDOT></tleParameters></data></segment></body></omm>
<omm id="CCSDS_OMM_VERS" version="2.0">
<header><CREATION_DATE/><ORIGINATOR/></header><body><segment><metadata><OBJECT_NAME>QIANFAN-23</OBJECT_NAME><OBJECT_ID>2024-185E</OBJECT_ID><CENTER_NAME>EARTH</CENTER_NAME><REF_FRAME>TEME</REF_FRAME><TIME_SYSTEM>UTC</TIME_SYSTEM><MEAN_ELEMENT_THEORY>SGP4</MEAN_ELEMENT_THEORY></metadata><data><meanElements><EPOCH>2025-12-20T21:32:05.863776</EPOCH><MEAN_MOTION>14.16299744</MEAN_MOTION><ECCENTRICITY>.00055901</ECCENTRICITY><INCLINATION>88.9810</INCLINATION><RA_OF_ASC_NODE>76.8146</RA_OF_ASC_NODE><ARG_OF_PERICENTER>294.3808</ARG_OF_PERICENTER><MEAN_ANOMALY>65.6796</MEAN_ANOMALY></meanElements><tleParameters><EPHEMERIS_TYPE>0</EPHEMERIS_TYPE><CLASSIFICATION_TYPE>U</CLASSIFICATION_TYPE><NORAD_CAT_ID>61556</NORAD_CAT_ID><ELEMENT_SET_NO>999</ELEMENT_SET_NO><REV_AT_EPOCH>7090</REV_AT_EPOCH><BSTAR>.17860143E-3</BSTAR><MEAN_MOTION_DOT>.368E-5</MEAN_MOTION_DOT><MEAN_MOTION_DDOT>0</MEAN_MOTION_DDOT></tleParameters></data></segment></body></omm>
<omm id="CCSDS_OMM_VERS" version="2.0">
<header><CREATION_DATE/><ORIGINATOR/></header><body><segment><metadata><OBJECT_NAME>QIANFAN-24</OBJECT_NAME><OBJECT_ID>2024-185F</OBJECT_ID><CENTER_NAME>EARTH</CENTER_NAME><REF_FRAME>TEME</REF_FRAME><TIME_SYSTEM>UTC</TIME_SYSTEM><MEAN_ELEMENT_THEORY>SGP4</MEAN_ELEMENT_THEORY></metadata><data><meanElements><EPOCH>2025-12-20T21:44:00.886848</EPOCH><MEAN_MOTION>14.23820781</MEAN_MOTION><ECCENTRICITY>.00072832</ECCENTRICITY><INCLINATION>88.9791</INCLINATION><RA_OF_ASC_NODE>76.2052</RA_OF_ASC_NODE><ARG_OF_PERICENTER>269.6259</ARG_OF_PERICENTER><MEAN_ANOMALY>90.4099</MEAN_ANOMALY></meanElements><tleParameters><EPHEMERIS_TYPE>0</EPHEMERIS_TYPE><CLASSIFICATION_TYPE>U</CLASSIFICATION_TYPE><NORAD_CAT_ID>61557</NORAD_CAT_ID><ELEMENT_SET_NO>999</ELEMENT_SET_NO><REV_AT_EPOCH>7118</REV_AT_EPOCH><BSTAR>.24287751E-3</BSTAR><MEAN_MOTION_DOT>.57E-5</MEAN_MOTION_DOT><MEAN_MOTION_DDOT>0</MEAN_MOTION_DDOT></tleParameters></data></segment></body></omm>

</ndm>
