QIANFAN-17              
1 60395U 24140S   25354.88097851  .00000076  00000+0  98624-4 0  9994
2 60395  88.9780 298.5929 0014501 175.1243 185.0052 13.50978213 69233
QIANFAN-18              
1 60396U 24140T   25354.93446197  .00000062  00000+0  76743-4 0  9995
2 60396  88.9773 298.1203 0014421 157.1938 202.9856 13.50978207 68636
QIANFAN-19              
1 61552U 24185A   25354.93343673  .00000398  00000+0  20102-3 0  9993
2 61552  88.9818  77.0046 0004783 278.2340  81.8304 14.14303441 70821
QIANFAN-20              
1 61553U 24185B   25354.92664191  .00000320  00000+0  17751-3 0  9995
2 61553  88.9817  77.3375 0004365 335.6613  24.4364 14.08851799 70642
QIANFAN-21              
1 61554U 24185C   25354.90978218  .00000501  00000+0  21777-3 0  9996
2 61554  88.9733  76.0247 0009584 347.9877  12.1084 14.22618012 71133
QIANFAN-22              
1 61555U 24185D   25354.87376859  .00000171  00000+0  13683-3 0  9996
2 61555  88.9801  78.3571 0005438 348.6458  11.4589 13.86305872 70061
QIANFAN-23              
1 61556U 24185E   25354.89729009  .00000368  00000+0  17860-3 0  9997
2 61556  88.9810  76.8146 0005590 294.3808  65.6796 14.16299744 70906
QIANFAN-24              
1 61557U 24185F   25354.90556582  .00000570  00000+0  24288-3 0  9991
2 61557  88.9791  76.2052 0007283 269.6259  90.4099 14.23820781 71183
